*******************************************************************************
JPL/HORIZONS              2723 Gorshkov (1978 QL2)         2023-Sep-04 11:19:33
Rec #:    2723 (+COV) Soln.date: 2023-Aug-23_01:20:03   # obs: 2910 (1950-2023)
 
IAU76/J2000 helio. ecliptic osc. elements (au, days, deg., period=Julian yrs):
 
  EPOCH=  2457562.5 ! 2016-Jun-23.00 (TDB)         Residual RMS= .25302
   EC= .1994906348025898   QR= 2.495380657919417   TP= 2458038.5557379089
   OM= 153.0797077315787   W=  227.6703882283176   IN= 2.080877745614224
   A= 3.117241054767725    MA= 274.7476622322077   ADIST= 3.739101451616033
   PER= 5.50381            N= .17908058            ANGMOM= .029761052
   DAN= 3.45768            DDN= 2.63871            L= 20.7312799
   B= -1.5382045           MOID= 1.49886           TP= 2017-Oct-12.0557379089
 
Asteroid physical parameters (km, seconds, rotational period in hours):
   GM= n.a.                RAD= 6.398              ROTPER= 42.484
   H= 13.21                G= .150                 B-V= n.a.
                           ALBEDO= .108            STYP= n.a.

ASTEROID comments: 
1: soln ref.= JPL#36, OCC=0
2: source=ORB
*******************************************************************************


*******************************************************************************
Ephemeris / API_USER Mon Sep  4 11:19:33 2023 Pasadena, USA      / Horizons
*******************************************************************************
Target body name: 2723 Gorshkov (1978 QL2)        {source: JPL#36}
Center body name: Solar System Barycenter (0)     {source: DE441}
Center-site name: BODY CENTER
*******************************************************************************
Start time      : A.D. 2023-Aug-12 00:00:00.0000 TDB
Stop  time      : A.D. 2023-Aug-13 00:00:00.0000 TDB
Step-size       : 2880 minutes
*******************************************************************************
Center geodetic : 0.0, 0.0, 0.0                   {E-lon(deg),Lat(deg),Alt(km)}
Center cylindric: 0.0, 0.0, 0.0                   {E-lon(deg),Dxy(km),Dz(km)}
Center radii    : (undefined)
Small perturbers: Yes                             {source: SB441-N16}
Output units    : KM-S
Calendar mode   : Mixed Julian/Gregorian
Output type     : GEOMETRIC cartesian states
Output format   : 2 (position and velocity)
Reference frame : Ecliptic of J2000.0
*******************************************************************************
Initial IAU76/J2000 heliocentric ecliptic osculating elements (au, days, deg.):
  EPOCH=  2457562.5 ! 2016-Jun-23.00 (TDB)         Residual RMS= .25302        
   EC= .1994906348025898   QR= 2.495380657919417   TP= 2458038.5557379089      
   OM= 153.0797077315787   W=  227.6703882283176   IN= 2.080877745614224       
  Equivalent ICRF heliocentric cartesian coordinates (au, au/d):
   X= 1.589631413055332E-01  Y=-2.960541343135653E+00  Z=-1.173999925081477E+00
  VX= 9.226081502167532E-03 VY= 2.241396131523564E-03 VZ= 7.235647699416791E-04
Asteroid physical parameters (km, seconds, rotational period in hours):        
   GM= n.a.                RAD= 6.398              ROTPER= 42.484              
   H= 13.21                G= .150                 B-V= n.a.                   
                           ALBEDO= .108            STYP= n.a.                  
*******************************************************************************
JDTDB
   X     Y     Z
   VX    VY    VZ
*******************************************************************************
$$SOE
2460168.500000000 = A.D. 2023-Aug-12 00:00:00.0000 TDB 
 X = 2.271978613729270E+08 Y = 3.072548064166469E+08 Z =-1.369530951004817E+07
 VX=-1.499737704624570E+01 VY= 1.350554309728177E+01 VZ=-1.911461018600855E-01
$$EOE
*******************************************************************************
 
TIME

  Barycentric Dynamical Time ("TDB" or T_eph) output was requested. This
continuous coordinate time is equivalent to the relativistic proper time
of a clock at rest in a reference frame co-moving with the solar system
barycenter but outside the system's gravity well. It is the independent
variable in the solar system relativistic equations of motion.

  TDB runs at a uniform rate of one SI second per second and is independent
of irregularities in Earth's rotation.
 
CALENDAR SYSTEM

  Mixed calendar mode was active such that calendar dates after AD 1582-Oct-15
(if any) are in the modern Gregorian system. Dates prior to 1582-Oct-5 (if any)
are in the Julian calendar system, which is automatically extended for dates
prior to its adoption on 45-Jan-1 BC.  The Julian calendar is useful for
matching historical dates. The Gregorian calendar more accurately corresponds
to the Earth's orbital motion and seasons. A "Gregorian-only" calendar mode is
available if such physical events are the primary interest.

REFERENCE FRAME AND COORDINATES

  Ecliptic at the standard reference epoch

    Reference epoch: J2000.0
    X-Y plane: adopted Earth orbital plane at the reference epoch
               Note: IAU76 obliquity of 84381.448 arcseconds wrt ICRF X-Y plane
    X-axis   : ICRF
    Z-axis   : perpendicular to the X-Y plane in the directional (+ or -) sense
               of Earth's north pole at the reference epoch.

  Symbol meaning:

    JDTDB    Julian Day Number, Barycentric Dynamical Time
      X      X-component of position vector (km)
      Y      Y-component of position vector (km)
      Z      Z-component of position vector (km)
      VX     X-component of velocity vector (km/sec)                           
      VY     Y-component of velocity vector (km/sec)                           
      VZ     Z-component of velocity vector (km/sec)                           

ABERRATIONS AND CORRECTIONS

 Geometric state vectors have NO corrections or aberrations applied.

Computations by ...

    Solar System Dynamics Group, Horizons On-Line Ephemeris System
    4800 Oak Grove Drive, Jet Propulsion Laboratory
    Pasadena, CA  91109   USA

    General site: https://ssd.jpl.nasa.gov/
    Mailing list: https://ssd.jpl.nasa.gov/email_list.html
    System news : https://ssd.jpl.nasa.gov/horizons/news.html
    User Guide  : https://ssd.jpl.nasa.gov/horizons/manual.html
    Connect     : browser        https://ssd.jpl.nasa.gov/horizons/app.html#/x
                  API            https://ssd-api.jpl.nasa.gov/doc/horizons.html
                  command-line   telnet ssd.jpl.nasa.gov 6775
                  e-mail/batch   https://ssd.jpl.nasa.gov/ftp/ssd/hrzn_batch.txt
                  scripts        https://ssd.jpl.nasa.gov/ftp/ssd/SCRIPTS
    Author      : Jon.D.Giorgini@jpl.nasa.gov
*******************************************************************************
